{
    "links": {
        "self": "http://www.neowsapp.com/rest/v1/neo/3774685?api_key=iIulBulltgU6a56xZRHN4H3l9WmuAYTsLGpBGhQ2"
    },
    "id": "3774685",
    "neo_reference_id": "3774685",
    "name": "(2017 KC3)",
    "designation": "2017 KC3",
    "nasa_jpl_url": "http://ssd.jpl.nasa.gov/sbdb.cgi?sstr=3774685",
    "absolute_magnitude_h": 23.0,
    "estimated_diameter": {
        "kilometers": {
            "estimated_diameter_min": 0.0667659413,
            "estimated_diameter_max": 0.1492931834
        },
        "meters": {
            "estimated_diameter_min": 66.7659413495,
            "estimated_diameter_max": 149.2931834393
        },
        "miles": {
            "estimated_diameter_min": 0.0414864197,
            "estimated_diameter_max": 0.0927664547
        },
        "feet": {
            "estimated_diameter_min": 219.0483710172,
            "estimated_diameter_max": 489.807047955
        }
    },
    "is_potentially_hazardous_asteroid": false,
    "close_approach_data": [
        {
            "close_approach_date": "2017-05-26",
            "close_approach_date_full": "2017-May-26 03:26",
            "epoch_date_close_approach": 1495769160000,
            "relative_velocity": {
                "kilometers_per_second": "18.4368057696",
                "kilometers_per_hour": "66372.5007707148",
                "miles_per_hour": "41241.2908261144"
            },
            "miss_distance": {
                "astronomical": "0.0977015387",
                "lunar": "38.0058985543",
                "kilometers": "14615942.085242569",
                "miles": "9081925.2772986922"
            },
            "orbiting_body": "Earth"
        },
        {
            "close_approach_date": "2017-08-10",
            "close_approach_date_full": "2017-Aug-10 20:35",
            "epoch_date_close_approach": 1502397300000,
            "relative_velocity": {
                "kilometers_per_second": "16.107485928",
                "kilometers_per_hour": "57986.9493407784",
                "miles_per_hour": "36030.8352723298"
            },
            "miss_distance": {
                "astronomical": "0.1076647119",
                "lunar": "41.8815729291",
                "kilometers": "16106411.574403653",
                "miles": "10008060.0724222914"
            },
            "orbiting_body": "Venus"
        },
        {
            "close_approach_date": "2187-01-08",
            "close_approach_date_full": "2187-Jan-08 17:29",
            "epoch_date_close_approach": 6848558940000,
            "relative_velocity": {
                "kilometers_per_second": "33.3012079616",
                "kilometers_per_hour": "119884.3486617989",
                "miles_per_hour": "74491.4720893272"
            },
            "miss_distance": {
                "astronomical": "0.3980350878",
                "lunar": "154.8356491542",
                "kilometers": "59545201.320142986",
                "miles": "36999672.4027297668"
            },
            "orbiting_body": "Earth"
        }
    ],
    "orbital_data": {
        "orbit_id": "4",
        "orbit_determination_date": "2017-05-27 06:17:33",
        "first_observation_date": "2017-05-17",
        "last_observation_date": "2017-05-27",
        "data_arc_in_days": 10,
        "observations_used": 54,
        "orbit_uncertainty": "9",
        "minimum_orbit_intersection": ".020233",
        "jupiter_tisserand_invariant": "4.362",
        "epoch_osculation": "2457892.5",
        "eccentricity": ".6496080343472318",
        "semi_major_axis": "1.459918656040102",
        "inclination": "7.795665897104235",
        "ascending_node_longitude": "68.49239706536726",
        "orbital_period": "644.3048706600873",
        "perihelion_distance": ".511543767583039",
        "perihelion_argument": "276.189577317755",
        "aphelion_distance": "2.408293544497165",
        "perihelion_time": "2457952.089531430691",
        "mean_anomaly": "326.7048437906871",
        "mean_motion": ".5587417019386827",
        "equinox": "J2000",
        "orbit_class": {
            "orbit_class_type": "APO",
            "orbit_class_description": "Near-Earth asteroid orbits which cross the Earth’s orbit similar to that of 1862 Apollo",
            "orbit_class_range": "a (semi-major axis) > 1.0 AU; q (perihelion) < 1.017 AU"
        }
    },
    "is_sentry_object": false
}